SCD 1                   
1 22490U 93009B   26061.62742050  .00000514  00000+0  89647-4 0  9996
2 22490  24.9680 145.4917 0042219  90.1877  56.7842 14.46062608745677
TECHSAT 1B (GO-32)      
1 25397U 98043D   26061.99663989  .00000101  00000+0  63660-4 0  9990
2 25397  99.0019  52.1056 0001861 130.2655 229.8686 14.24403864436216
SCD 2                   
1 25504U 98060A   26062.20312104  .00000526  00000+0  95904-4 0  9991
2 25504  24.9967   5.7412 0016986  83.4174  48.6027 14.45478572444973
DLR-TUBSAT              
1 25757U 99029B   26062.20122575  .00000173  00000+0  54325-4 0  9998
2 25757  98.6657  54.2419 0013387 316.0077  44.0051 14.52394425417869
TERRA                   
1 25994U 99068A   26062.13367142  .00000513  00000+0  11359-3 0  9994
2 25994  97.9607 115.8185 0002257 167.8691 217.2698 14.61006268394120
MAROC-TUBSAT            
1 27004U 01056D   26062.06585064 -.00000016  00000+0  34376-4 0  9999
2 27004  99.8000 236.9435 0020448  56.0222  59.8589 13.70257656211659
AQUA                    
1 27424U 02022A   26062.18158764  .00001234  00000+0  25624-3 0  9992
2 27424  98.4163  29.4285 0000683  58.4731 357.1810 14.61957361267785
IRS-P6 (RESOURCESAT-1)  
1 28051U 03046A   26062.18984764  .00000184  00000+0  75918-4 0  9998
2 28051  98.2062 103.8273 0063117 300.9592 129.1157 14.36112197165312
SHIYAN-1 (SY-1)         
1 28220U 04012A   26062.13496601  .00016645  00000+0  56106-3 0  9999
2 28220  97.8787 133.5160 0006418  44.7011 315.4745 15.30800124194857
AURA                    
1 28376U 04026A   26062.12291115  .00001233  00000+0  26047-3 0  9996
2 28376  98.3300  17.7838 0001025  78.1843 281.9472 14.61129673150722
IRS-P5 (CARTOSAT-1)     
1 28649U 05017A   26062.03656338  .00002003  00000+0  20931-3 0  9994
2 28649  97.5422  89.8803 0002493  76.5331 283.6165 14.90736707128005
SINAH 1                 
1 28893U 05043D   26062.12536294  .00000577  00000+0  11921-3 0  9995
2 28893  98.2672 195.9314 0013379 246.4021 113.5776 14.64063924 85002
RESURS-DK 1             
1 29228U 06021A   26061.98907888  .00003053  00000+0  18010-3 0  9997
2 29228  69.9302 254.3570 0002469 165.6054 194.5183 15.12690123 86519
ARIRANG-2 (KOMPSAT-2)   
1 29268U 06031A   26062.20685160  .00000462  00000+0  95364-4 0  9993
2 29268  97.8294 251.7730 0015596  52.7889  70.7853 14.64581606 45963
LAPAN-TUBSAT            
1 29709U 07001A   26062.12551994  .00000396  00000+0  52124-4 0  9992
2 29709  98.1319  58.9801 0012317 164.9601 195.1982 14.85816087 35407
HAIYANG-1B              
1 31113U 07010A   26061.93514543  .00000133  00000+0  66192-4 0  9990
2 31113  98.3418  47.9463 0013968 151.8167 208.3775 14.30996840985438
COSMO-SKYMED 1          
1 31598U 07023A   26062.17868942  .00003793  00000+0  33937-3 0  9998
2 31598  97.8862 253.1592 0000825  87.3665 272.7651 14.96471999 13930
TERRASAR-X              
1 31698U 07026A   26061.55096637  .00001962  00000+0  96617-4 0  9998
2 31698  97.4467  70.7747 0001802  76.7712 283.3724 15.19148840 37032
WORLDVIEW-1 (WV-1)      
1 32060U 07041A   26061.87569012  .00010177  00000+0  41801-3 0  9998
2 32060  97.3826 183.1550 0002825 154.6258 205.5118 15.24385613 26681
YAOGAN-3                
1 32289U 07055A   26062.19647278  .00001088  00000+0  11768-3 0  9993
2 32289  97.8281  93.0910 0001711  85.4306 274.7107 14.90321208990072
COSMO-SKYMED 2          
1 32376U 07059A   26062.16951247  .00000683  00000+0  92347-4 0  9998
2 32376  97.8859 247.3001 0001312  82.9143 277.2219 14.82155356986294
RADARSAT-2              
1 32382U 07061A   26062.17186512  .00000068  00000+0  43376-4 0  9999
2 32382  98.5811  70.6047 0001177  84.6122 275.5195 14.29981176950809
CARTOSAT-2A             
1 32783U 08021A   26062.17914983  .00001344  00000+0  18810-3 0  9994
2 32783  97.7796 114.4416 0013264  95.4108 264.8617 14.79087143963134
HUANJING 1A (HJ-1A)     
1 33320U 08041A   26062.22841764  .00001478  00000+0  18444-3 0  9997
2 33320  97.6619  52.2229 0020301 123.2658 237.0505 14.83692133942698
HUANJING 1B (HJ-1B)     
1 33321U 08041B   26062.21901941  .00002040  00000+0  25393-3 0  9998
2 33321  97.6468  55.6948 0036541 168.7297 191.4744 14.83085165942703
GEOEYE 1                
1 33331U 08042A   26062.19705073  .00000643  00000+0  12953-3 0  9990
2 33331  98.1218 137.4683 0004378  45.5705 314.5856 14.64757199934634
THEOS                   
1 33396U 08049A   26062.14363999  .00000200  00000+0  11363-3 0  9993
2 33396  98.5723 122.8092 0001003  89.9812 270.1480 14.20116056902914
COSMO-SKYMED 3          
1 33412U 08054A   26062.14274497  .00006344  00000+0  43657-3 0  9998
2 33412  97.8423 278.9170 0014801 266.3390  93.6144 15.06174756940973
YAOGAN-4                
1 33446U 08061A   26061.77020872  .00001661  00000+0  21090-3 0  9991
2 33446  97.9243 356.1272 0015697  60.0888 300.1883 14.82952036929890
GOSAT (IBUKI)           
1 33492U 09002A   26062.18348885  .00000262  00000+0  54639-4 0  9993
2 33492  98.0766 174.6675 0001439  87.0333 273.1036 14.67545520915912
DEIMOS-1                
1 35681U 09041A   26062.16845706  .00001048  00000+0  16245-3 0  9993
2 35681  97.7237 224.0753 0001937 128.1514 231.9870 14.75103118891251
DUBAISAT-1              
1 35682U 09041B   26061.92448081  .00001519  00000+0  23376-3 0  9998
2 35682  97.9862 196.4675 0011429  56.4762 303.7537 14.74882983889436
OCEANSAT-2              
1 35931U 09051A   26062.18525087  .00000010  00000+0  32608-4 0  9991
2 35931  98.2270  59.6520 0016948 170.5197 189.6293 13.99635782864500
WORLDVIEW-2 (WV-2)      
1 35946U 09055A   26062.18579426  .00000163  00000+0  68395-4 0  9998
2 35946  98.4705 137.1439 0004695 162.4680 197.6670 14.37907184860410
SMOS                    
1 36036U 09059A   26062.13846479  .00000375  00000+0  13345-3 0  9992
2 36036  98.4425 251.0106 0001048  80.3942 279.7365 14.39754308858190
YAOGAN-7                
1 36110U 09069A   26062.13482942  .00000889  00000+0  13027-3 0  9994
2 36110  98.0224 308.5773 0025264  24.2142 336.0250 14.77878934873965
TANDEM-X                
1 36605U 10030A   26061.55096561  .00001203  00000+0  60498-4 0  9992
2 36605  97.4472  70.7755 0001842  94.8863 265.2582 15.19147252870450
CARTOSAT-2B             
1 36795U 10035A   26062.16512882  .00000439  00000+0  66661-4 0  9992
2 36795  97.8459 113.5909 0011575 169.6117 190.5336 14.78693355844185
YAOGAN-10               
1 36834U 10038A   26062.23937699  .00003404  00000+0  40551-3 0  9998
2 36834  97.9086  86.4604 0001732  90.8193 335.4425 14.84985123841482
COSMO-SKYMED 4          
1 37216U 10060A   26062.18217502  .00000203  00000+0  32114-4 0  9997
2 37216  97.8854 247.3125 0001358  84.2289 275.9079 14.82150033828864
RESOURCESAT-2           
1 37387U 11015A   26062.16606934 -.00000199  00000+0 -70904-4 0  9991
2 37387  98.7733 130.2943 0006217 156.0762 204.0705 14.21489972771114
HAIYANG-2A              
1 37781U 11043A   26062.32693273 -.00000003  00000+0  40754-4 0  9993
2 37781  99.3418  67.0293 0000832 265.9783  94.1273 13.78501702732093
RASAT                   
1 37791U 11044D   26062.19990339  .00000747  00000+0  13840-3 0  9992
2 37791  98.0568 155.2409 0020937 165.0677 279.3951 14.68044567777635
SRMSAT                  
1 37841U 11058D   26062.20286726  .00000470  00000+0  11156-3 0  9994
2 37841  19.9732 340.9649 0011887 118.1185  34.7703 14.11544671742822
PLEIADES 1A             
1 38012U 11076F   26062.20729470  .00000372  00000+0  89977-4 0  9991
2 38012  98.2063 138.7025 0001657  93.7501 343.0302 14.58532816756549
ZIYUAN 1-02C (ZY 1-02C) 
1 38038U 11079A   26062.18818413  .00000420  00000+0  15282-3 0  9996
2 38038  98.4193 131.6718 0005270 263.4189 173.3268 14.38115020743977
ARIRANG-3 (KOMPSAT-3)   
1 38338U 12025B   26062.16690602  .00000642  00000+0  13694-3 0  9998
2 38338  98.1052  21.5380 0006779  87.3416 272.8561 14.62091213735857
EXACTVIEW-1 (ADS-1B)    
1 38709U 12039C   26061.93308572  .00000171  00000+0  92782-4 0  9994
2 38709  98.9635 177.0061 0011861 116.2093 244.0306 14.24947635707570
SPOT 6                  
1 38755U 12047A   26062.20775203  .00000237  00000+0  60887-4 0  9998
2 38755  98.2241 130.7073 0001442  96.0064 264.1299 14.58534906717602
PLEIADES 1B             
1 39019U 12068A   26062.15828766  .00000241  00000+0  61737-4 0  9992
2 39019  98.2033 138.6401 0001604  90.7157 269.4226 14.58576231705399
GOKTURK 2               
1 39030U 12073A   26062.15292817  .00000649  00000+0  10242-3 0  9999
2 39030  97.6886 264.8534 0001291  55.0287 305.1044 14.75423775708875
LANDSAT 8               
1 39084U 13008A   26062.13684756  .00000443  00000+0  10839-3 0  9996
2 39084  98.1931 133.9696 0001228  90.5662 269.5677 14.57123628682451
SARAL                   
1 39086U 13009A   26062.17656953  .00000146  00000+0  69750-4 0  9998
2 39086  98.5551 250.0741 0001113 202.9445 157.1689 14.32825727680420
GAOFEN-1                
1 39150U 13018A   26062.21022649  .00000383  00000+0  62139-4 0  9991
2 39150  97.9195 136.3920 0016101 246.7943 113.1571 14.76531582692602
VNREDSAT 1              
1 39160U 13021B   26062.14798774  .00000724  00000+0  14340-3 0  9996
2 39160  97.9235 119.5579 0001584  90.0993 270.0392 14.65061941684762
ARIRANG-5 (KOMPSAT-5)   
1 39227U 13042A   26062.35129358  .00002147  00000+0  15764-3 0  9994
2 39227  97.6182 250.5225 0003881 127.6717 232.4862 15.04513853687946
SKYSAT-A                
1 39418U 13066C   26062.08514859  .00004555  00000+0  26551-3 0  9997
2 39418  97.3967 114.8336 0020651 324.6807  35.3055 15.12293304672442
DUBAISAT-2              
1 39419U 13066D   26062.22613238  .00008412  00000+0  53077-3 0  9994
2 39419  97.4521  55.2404 0012955  44.9068 315.3206 15.09275250670402
GPM-CORE                
1 39574U 14009C   26062.17101468  .00015098  00000+0  32681-3 0  9991
2 39574  64.9740 303.3220 0012448 264.2970  95.6751 15.44582903681438
